[Satellite]
VERSION=1.1
NAME=AL-FARABI 1
NICKNAME=AL-FARABI 1
TLE1=1 42016U 17008BW  22342.45867777  .00034469  00000+0  81776-3 0  9990
TLE2=2 42016  97.2488  46.5391 0003469   4.8728 355.2553 15.41637167323784
STATUS=0
